{
  "type": "FeatureCollection",
  "features": [
    {
      "type": "Feature",
      "properties": {
        "norad_id": 31307,
        "name": "GALAXY 17 (G-17)",
        "group": "intelsat",
        "lat": 2.176902541466771,
        "lon": 142.34189315237734,
        "alt_km": 35792.05001108177,
        "timestamp": "2025-12-14T09:36:22.702192+00:00",
        "meta_object_name": "GALAXY 17 (G-17)",
        "meta_object_id": "2007-016B",
        "meta_epoch": "2025-12-13T13:02:45.580704",
        "meta_mean_motion": 1.00272407,
        "meta_eccentricity": 0.00057594,
        "meta_inclination": 2.5023,
        "meta_ra_of_asc_node": 82.2769,
        "meta_arg_of_pericenter": 165.1562,
        "meta_mean_anomaly": 305.7517,
        "meta_ephemeris_type": 0,
        "meta_classification_type": "U",
        "meta_norad_cat_id": 31307,
        "meta_element_set_no": 999,
        "meta_rev_at_epoch": 6794,
        "meta_bstar": 0,
        "meta_mean_motion_dot": -1.92e-06,
        "meta_mean_motion_ddot": 0,
        "tle_line1": "1 31307U 07016B   25347.54358311 -.00000192  00000+0  00000+0 0  9990",
        "tle_line2": "2 31307   2.5023  82.2769 0005759 165.1562 305.7517  1.00272407 67941"
      },
      "geometry": {
        "type": "Point",
        "coordinates": [
          142.34189315237734,
          2.176902541466771
        ]
      }
    },
    {
      "type": "Feature",
      "properties": {
        "norad_id": 31862,
        "name": "DIRECTV 10",
        "group": "intelsat",
        "lat": -0.0035656268762414233,
        "lon": 124.61250947508687,
        "alt_km": 35786.35767891103,
        "timestamp": "2025-12-14T09:36:22.702204+00:00",
        "meta_object_name": "DIRECTV 10",
        "meta_object_id": "2007-032A",
        "meta_epoch": "2025-12-12T23:15:53.301024",
        "meta_mean_motion": 1.0027112,
        "meta_eccentricity": 2.941e-05,
        "meta_inclination": 0.0079,
        "meta_ra_of_asc_node": 209.5146,
        "meta_arg_of_pericenter": 8.2783,
        "meta_mean_anomaly": 110.3026,
        "meta_ephemeris_type": 0,
        "meta_classification_type": "U",
        "meta_norad_cat_id": 31862,
        "meta_element_set_no": 999,
        "meta_rev_at_epoch": 4372,
        "meta_bstar": 0,
        "meta_mean_motion_dot": -9e-07,
        "meta_mean_motion_ddot": 0,
        "tle_line1": "1 31862U 07032A   25346.96936691 -.00000090  00000+0  00000+0 0  9999",
        "tle_line2": "2 31862   0.0079 209.5146 0000294   8.2783 110.3026  1.00271120 43721"
      },
      "geometry": {
        "type": "Point",
        "coordinates": [
          124.61250947508687,
          -0.0035656268762414233
        ]
      }
    },
    {
      "type": "Feature",
      "properties": {
        "norad_id": 32253,
        "name": "INTELSAT 11 (IS-11)",
        "group": "intelsat",
        "lat": 0.27766504776998086,
        "lon": 85.73194120599891,
        "alt_km": 36167.96536663989,
        "timestamp": "2025-12-14T09:36:22.702216+00:00",
        "meta_object_name": "INTELSAT 11 (IS-11)",
        "meta_object_id": "2007-044B",
        "meta_epoch": "2025-12-13T14:30:14.702976",
        "meta_mean_motion": 0.99049073,
        "meta_eccentricity": 0.00088133,
        "meta_inclination": 3.0826,
        "meta_ra_of_asc_node": 80.9675,
        "meta_arg_of_pericenter": 166.3126,
        "meta_mean_anomaly": 274.6831,
        "meta_ephemeris_type": 0,
        "meta_classification_type": "U",
        "meta_norad_cat_id": 32253,
        "meta_element_set_no": 999,
        "meta_rev_at_epoch": 6661,
        "meta_bstar": 0,
        "meta_mean_motion_dot": 7.5e-07,
        "meta_mean_motion_ddot": 0,
        "tle_line1": "1 32253U 07044B   25347.60433684  .00000075  00000+0  00000+0 0  9995",
        "tle_line2": "2 32253   3.0826  80.9675 0008813 166.3126 274.6831  0.99049073 66617"
      },
      "geometry": {
        "type": "Point",
        "coordinates": [
          85.73194120599891,
          0.27766504776998086
        ]
      }
    },
    {
      "type": "Feature",
      "properties": {
        "norad_id": 32388,
        "name": "HORIZONS-2",
        "group": "intelsat",
        "lat": 2.00673130260971,
        "lon": 153.53469382177016,
        "alt_km": 35796.821141201064,
        "timestamp": "2025-12-14T09:36:22.702228+00:00",
        "meta_object_name": "HORIZONS-2",
        "meta_object_id": "2007-063B",
        "meta_epoch": "2025-12-13T13:05:52.781856",
        "meta_mean_motion": 1.00269665,
        "meta_eccentricity": 0.00048599,
        "meta_inclination": 2.1237,
        "meta_ra_of_asc_node": 82.9531,
        "meta_arg_of_pericenter": 190.8803,
        "meta_mean_anomaly": 291.3082,
        "meta_ephemeris_type": 0,
        "meta_classification_type": "U",
        "meta_norad_cat_id": 32388,
        "meta_element_set_no": 999,
        "meta_rev_at_epoch": 6595,
        "meta_bstar": 0,
        "meta_mean_motion_dot": -2.39e-06,
        "meta_mean_motion_ddot": 0,
        "tle_line1": "1 32388U 07063B   25347.54574979 -.00000239  00000+0  00000+0 0  9994",
        "tle_line2": "2 32388   2.1237  82.9531 0004859 190.8803 291.3082  1.00269665 65959"
      },
      "geometry": {
        "type": "Point",
        "coordinates": [
          153.53469382177016,
          2.00673130260971
        ]
      }
    },
    {
      "type": "Feature",
      "properties": {
        "norad_id": 32729,
        "name": "DIRECTV 11",
        "group": "intelsat",
        "lat": 0.0010803437437848513,
        "lon": 128.2331513205921,
        "alt_km": 35784.51012056023,
        "timestamp": "2025-12-14T09:36:22.702240+00:00",
        "meta_object_name": "DIRECTV 11",
        "meta_object_id": "2008-013A",
        "meta_epoch": "2025-12-13T11:59:49.943040",
        "meta_mean_motion": 1.00277282,
        "meta_eccentricity": 3.64e-05,
        "meta_inclination": 0.023,
        "meta_ra_of_asc_node": 162.1011,
        "meta_arg_of_pericenter": 53.9112,
        "meta_mean_anomaly": 307.1925,
        "meta_ephemeris_type": 0,
        "meta_classification_type": "U",
        "meta_norad_cat_id": 32729,
        "meta_element_set_no": 999,
        "meta_rev_at_epoch": 4373,
        "meta_bstar": 0,
        "meta_mean_motion_dot": -1.12e-06,
        "meta_mean_motion_ddot": 0,
        "tle_line1": "1 32729U 08013A   25347.49988360 -.00000112  00000+0  00000+0 0  9996",
        "tle_line2": "2 32729   0.0230 162.1011 0000364  53.9112 307.1925  1.00277282 43739"
      },
      "geometry": {
        "type": "Point",
        "coordinates": [
          128.2331513205921,
          0.0010803437437848513
        ]
      }
    },
    {
      "type": "Feature",
      "properties": {
        "norad_id": 32951,
        "name": "GALAXY 18 (G-18)",
        "group": "intelsat",
        "lat": 0.027566969153992513,
        "lon": 104.38656941351215,
        "alt_km": 35797.898877178486,
        "timestamp": "2025-12-14T09:36:22.702251+00:00",
        "meta_object_name": "GALAXY 18 (G-18)",
        "meta_object_id": "2008-024A",
        "meta_epoch": "2025-12-13T12:59:53.744928",
        "meta_mean_motion": 1.00271876,
        "meta_eccentricity": 0.0002944,
        "meta_inclination": 0.0176,
        "meta_ra_of_asc_node": 330.5245,
        "meta_arg_of_pericenter": 296.6133,
        "meta_mean_anomaly": 247.3005,
        "meta_ephemeris_type": 0,
        "meta_classification_type": "U",
        "meta_norad_cat_id": 32951,
        "meta_element_set_no": 999,
        "meta_rev_at_epoch": 4399,
        "meta_bstar": 0,
        "meta_mean_motion_dot": 4e-07,
        "meta_mean_motion_ddot": 0,
        "tle_line1": "1 32951U 08024A   25347.54159427  .00000040  00000+0  00000+0 0  9994",
        "tle_line2": "2 32951   0.0176 330.5245 0002944 296.6133 247.3005  1.00271876 43995"
      },
      "geometry": {
        "type": "Point",
        "coordinates": [
          104.38656941351215,
          0.027566969153992513
        ]
      }
    },
    {
      "type": "Feature",
      "properties": {
        "norad_id": 33153,
        "name": "INTELSAT 25 (IS-25)",
        "group": "intelsat",
        "lat": 2.037973212703595,
        "lon": -164.12122840861971,
        "alt_km": 35777.6997725496,
        "timestamp": "2025-12-14T09:36:22.702268+00:00",
        "meta_object_name": "INTELSAT 25 (IS-25)",
        "meta_object_id": "2008-034A",
        "meta_epoch": "2025-12-13T11:35:16.459296",
        "meta_mean_motion": 1.00271725,
        "meta_eccentricity": 0.00049673,
        "meta_inclination": 2.2298,
        "meta_ra_of_asc_node": 82.642,
        "meta_arg_of_pericenter": 180.3175,
        "meta_mean_anomaly": 321.7821,
        "meta_ephemeris_type": 0,
        "meta_classification_type": "U",
        "meta_norad_cat_id": 33153,
        "meta_element_set_no": 999,
        "meta_rev_at_epoch": 6383,
        "meta_bstar": 0,
        "meta_mean_motion_dot": -2.09e-06,
        "meta_mean_motion_ddot": 0,
        "tle_line1": "1 33153U 08034A   25347.48282939 -.00000209  00000+0  00000+0 0  9996",
        "tle_line2": "2 33153   2.2298  82.6420 0004967 180.3175 321.7821  1.00271725 63832"
      },
      "geometry": {
        "type": "Point",
        "coordinates": [
          -164.12122840861971,
          2.037973212703595
        ]
      }
    }
  ]
}